CALSPHERE 1             
1 00900U 64063C   08198.71882807  .00000071  00000-0  69377-4 0  5401
2 00900  90.1760 321.1962 0029016 151.4301 208.8463 13.70341613173529
CALSPHERE 2             
1 00902U 64063E   08198.42241737  .00000075  00000-0  10000-3 0  8092
2 00902  90.1749 324.3548 0018800 136.3320 223.9322 13.52455106971986
LCS 1                   
1 01361U 65034C   08197.46941566  .00000009  00000-0  10000-3 0   405
2 01361  32.1400 238.4718 0007371 157.0050 203.0778  9.89274853562018
TEMPSAT 1               
1 01512U 65065E   08198.09139004  .00000058  00000-0  10000-3 0  8977
2 01512  89.8272 306.4134 0067770 264.3252  95.0163 13.33250709 87843
CALSPHERE 4(A)          
1 01520U 65065H   08198.73958729  .00000060  00000-0  10000-3 0   278
2 01520  90.1897  77.0556 0068628 191.1698 168.7921 13.35291816 89481
OPS 5712 (P/L 160)      
1 02826U 67053A   08198.80158285  .00000269  00000-0  10846-3 0  4817
2 02826  69.9317 219.0504 0008964 261.9106  98.1002 14.37982657119078
OPS 5712 (P/L 153)      
1 02874U 67053H   08198.21733192 -.00000017  00000-0  26066-4 0  8549
2 02874  69.9727  90.9950 0005592  36.0602 324.0876 13.95907277 93656
SURCAL 150B             
1 02909U 67053J   08198.78275801  .00000318  00000-0  10577-3 0  6470
2 02909  69.9557  43.2508 0003150  66.7676 293.3778 14.46148965124477
RIGIDSPHERE 2 (LCS 4)   
1 05398U 71067E   08197.73794523  .00000239  00000-0  81962-4 0  3113
2 05398  87.6261 341.8172 0064637 197.4220 162.4771 14.31075418936442
RADCAT                  
1 06212U 72076A   08197.86922095  .00001612  00000-0  63324-4 0  5111
2 06212  98.5615 149.1671 0004645  75.7856 284.3929 15.27554846 71511
